OBJECT_NAME,OBJECT_ID,EPOCH,MEAN_MOTION,ECCENTRICITY,INCLINATION,RA_OF_ASC_NODE,ARG_OF_PERICENTER,MEAN_ANOMALY,EPHEMERIS_TYPE,CLASSIFICATION_TYPE,NORAD_CAT_ID,ELEMENT_SET_NO,REV_AT_EPOCH,BSTAR,MEAN_MOTION_DOT,MEAN_MOTION_DDOT
SWARM B,2013-067A,2026-07-23T14:18:47.867040,15.28758705,.00022517,87.7465,331.2579,92.6438,267.5069,0,U,39451,999,68880,.11855123E-3,.3347E-4,0
SWARM A,2013-067B,2026-07-23T05:11:46.729248,15.50718876,.00032871,87.3303,42.8420,90.2224,269.9413,0,U,39452,999,71183,.17316733E-3,.999E-4,0
SWARM C,2013-067C,2026-07-23T12:55:28.792416,15.50729341,.00032603,87.3303,41.3028,90.5922,269.5712,0,U,39453,999,71184,.17460581E-3,.10077E-3,0
BRITE-CA1 (TORONTO),2014-033L,2026-07-23T14:11:43.217088,14.72735991,.00790984,97.9779,332.8574,159.4625,200.9794,0,U,40020,999,64757,.15435913E-3,.982E-5,0
OCO 2,2014-035A,2026-07-23T13:12:00.556416,14.57137035,.00013968,98.2021,145.2913,80.8268,279.3089,0,U,40059,999,64134,.79980421E-4,.315E-5,0
BRITE-PL2 (HEWELIUSZ),2014-049B,2026-07-23T06:09:14.112576,14.94705750,.0013589,97.9122,316.5421,355.9834,4.1275,0,U,40119,999,64683,.17276837E-3,.1818E-4,0
MMS 1,2015-011A,2026-07-23T16:00:01.999584,0.28361052,.83009974,72.5778,348.3661,168.1929,59.7767,0,U,40482,999,138,0,-.1593E-4,0
MMS 2,2015-011B,2026-07-23T16:00:01.999584,0.28361022,.83037869,72.5818,348.3651,168.1956,59.7631,0,U,40483,999,138,0,-.1593E-4,0
MMS 3,2015-011C,2026-07-23T16:00:01.999584,0.28361002,.8302183,72.5816,348.3770,168.2034,59.7368,0,U,40484,999,135,0,-.1592E-4,0
MMS 4,2015-011D,2026-07-23T16:00:01.999584,0.28361059,.83021415,72.5770,348.3605,168.2132,59.7333,0,U,40485,999,138,0,-.1592E-4,0
ASTROSAT,2015-052A,2026-07-23T13:16:16.938912,14.82562351,.0008085,5.9962,253.5907,198.3303,161.6533,0,U,40930,999,58523,.97970685E-4,.1478E-4,0
DAMPE,2015-078A,2026-07-23T13:51:18.825408,15.30869240,.00106337,97.4575,210.2267,313.6443,46.3915,0,U,41173,999,59011,.45644639E-4,.1285E-4,0
PISAT,2016-059B,2026-07-23T10:46:24.061440,14.69041077,.00305794,97.8196,203.3469,89.7127,270.7583,0,U,41784,999,52506,.15816619E-3,.887E-5,0
HXMT (HUIYAN),2017-034A,2026-07-23T13:44:33.524736,15.18747346,.00311528,43.0151,340.3959,13.7012,346.4676,0,U,42758,999,50319,.29219696E-3,.6018E-4,0
FLYING LAPTOP,2017-042G,2026-07-23T15:28:06.763008,15.01352269,.0019123,97.4848,358.8157,5.7093,354.4346,0,U,42831,999,49192,.21714222E-3,.2749E-4,0
ZHANGHENG 1-01 (CSES-1),2018-015C,2026-07-23T14:09:22.493952,15.20693721,.0017009,97.6900,10.9762,137.1646,223.0917,0,U,43194,999,47017,.34314831E-3,.7499E-4,0
SALSAT,2020-068K,2026-07-23T10:36:40.860576,15.30258663,.00100914,97.8868,209.7289,164.5021,195.6529,0,U,46495,999,32090,.2545612E-3,.7378E-4,0
IXPE,2021-121A,2026-07-23T14:00:01.000224,15.10547687,.00069894,0.2309,42.0320,273.0555,134.5230,0,U,49954,999,533,.63412242E-3,.11718E-3,0
SMILE,2026-109A,2026-07-13T23:01:31.580256,0.47500629,.83137076,70.0512,206.6048,286.9544,0.1879,0,U,69123,999,6,0,.936E-5,0
