SWARM B                 
1 39451U 13067A   26204.59638735  .00003347  00000+0  11855-3 0  9998
2 39451  87.7465 331.2579 0002251  92.6438 267.5069 15.28758705688806
SWARM A                 
1 39452U 13067B   26204.21651307  .00009990  00000+0  17317-3 0  9997
2 39452  87.3303  42.8420 0003287  90.2224 269.9413 15.50718876711830
SWARM C                 
1 39453U 13067C   26204.53852769  .00010077  00000+0  17461-3 0  9996
2 39453  87.3303  41.3028 0003260  90.5922 269.5712 15.50729341711846
BRITE-CA1 (TORONTO)     
1 40020U 14033L   26204.59147242  .00000982  00000+0  15436-3 0  9995
2 40020  97.9779 332.8574 0079098 159.4625 200.9794 14.72735991647571
OCO 2                   
1 40059U 14035A   26204.55000644  .00000315  00000+0  79980-4 0  9994
2 40059  98.2021 145.2913 0001396  80.8268 279.3089 14.57137035641340
BRITE-PL2 (HEWELIUSZ)   
1 40119U 14049B   26204.25641334  .00001818  00000+0  17277-3 0  9999
2 40119  97.9122 316.5421 0013589 355.9834   4.1275 14.94705750646830
MMS 1                   
1 40482U 15011A   26204.66668981 -.00001593  00000+0  00000+0 0  9997
2 40482  72.5778 348.3661 8300997 168.1929  59.7767  0.28361052  1389
MMS 2                   
1 40483U 15011B   26204.66668981 -.00001593  00000+0  00000+0 0  9998
2 40483  72.5818 348.3651 8303786 168.1956  59.7631  0.28361022  1380
MMS 3                   
1 40484U 15011C   26204.66668981 -.00001592  00000+0  00000+0 0  9998
2 40484  72.5816 348.3770 8302183 168.2034  59.7368  0.28361002  1351
MMS 4                   
1 40485U 15011D   26204.66668981 -.00001592  00000+0  00000+0 0  9999
2 40485  72.5770 348.3605 8302141 168.2132  59.7333  0.28361059  1388
ASTROSAT                
1 40930U 15052A   26204.55297383  .00001478  00000+0  97971-4 0  9991
2 40930   5.9962 253.5907 0008085 198.3303 161.6533 14.82562351585233
DAMPE                   
1 41173U 15078A   26204.57730122  .00001285  00000+0  45645-4 0  9991
2 41173  97.4575 210.2267 0010633 313.6443  46.3915 15.30869240590114
PISAT                   
1 41784U 16059B   26204.44888960  .00000887  00000+0  15817-3 0  9993
2 41784  97.8196 203.3469 0030579  89.7127 270.7583 14.69041077525060
HXMT (HUIYAN)           
1 42758U 17034A   26204.57261024  .00006018  00000+0  29220-3 0  9994
2 42758  43.0151 340.3959 0031152  13.7012 346.4676 15.18747346503191
FLYING LAPTOP           
1 42831U 17042G   26204.64452272  .00002749  00000+0  21714-3 0  9997
2 42831  97.4848 358.8157 0019123   5.7093 354.4346 15.01352269491925
ZHANGHENG 1-01 (CSES-1) 
1 43194U 18015C   26204.58984368  .00007499  00000+0  34315-3 0  9998
2 43194  97.6900  10.9762 0017009 137.1646 223.0917 15.20693721470173
SALSAT                  
1 46495U 20068K   26204.44213959  .00007378  00000+0  25456-3 0  9994
2 46495  97.8868 209.7289 0010091 164.5021 195.6529 15.30258663320903
IXPE                    
1 49954U 21121A   26204.58334491  .00011718  00000+0  63412-3 0  9995
2 49954   0.2309  42.0320 0006989 273.0555 134.5230 15.10547687  5330
SMILE                   
1 69123U 26109A   26194.95939329  .00000936  00000+0  00000+0 0  9996
2 69123  70.0512 206.6048 8313707 286.9544   0.1879  0.47500629    65
